{
  "type": "FeatureCollection",
  "features": [
    {
      "type": "Feature",
      "properties": {
        "norad_id": 34299,
        "name": "COSMOS 2251 DEB",
        "group": "cosmos-2251-debris",
        "lat": -20.767168685435333,
        "lon": -13.48210010732664,
        "alt_km": 387.9697517384129,
        "timestamp": "2025-12-04T15:47:54.493017+00:00",
        "meta_object_name": "COSMOS 2251 DEB",
        "meta_object_id": "1993-036MV",
        "meta_epoch": "2025-12-04T03:34:50.480832",
        "meta_mean_motion": 15.60018322,
        "meta_eccentricity": 0.00246931,
        "meta_inclination": 73.9822,
        "meta_ra_of_asc_node": 353.9098,
        "meta_arg_of_pericenter": 61.2729,
        "meta_mean_anomaly": 299.0966,
        "meta_ephemeris_type": 0,
        "meta_classification_type": "U",
        "meta_norad_cat_id": 34299,
        "meta_element_set_no": 999,
        "meta_rev_at_epoch": 88876,
        "meta_bstar": 0.0085466441,
        "meta_mean_motion_dot": 0.00768571,
        "meta_mean_motion_ddot": 0,
        "tle_line1": "1 34299U 93036MV  25338.14919538  .00768571  00000+0  85466-2 0  9993",
        "tle_line2": "2 34299  73.9822 353.9098 0024693  61.2729 299.0966 15.60018322888764"
      },
      "geometry": {
        "type": "Point",
        "coordinates": [
          -13.48210010732664,
          -20.767168685435333
        ]
      }
    },
    {
      "type": "Feature",
      "properties": {
        "norad_id": 34301,
        "name": "COSMOS 2251 DEB",
        "group": "cosmos-2251-debris",
        "lat": -69.95935179742676,
        "lon": 54.59942372019795,
        "alt_km": 615.638438100761,
        "timestamp": "2025-12-04T15:47:54.493028+00:00",
        "meta_object_name": "COSMOS 2251 DEB",
        "meta_object_id": "1993-036MX",
        "meta_epoch": "2025-12-03T20:54:11.567808",
        "meta_mean_motion": 14.83843313,
        "meta_eccentricity": 0.00123338,
        "meta_inclination": 74.0058,
        "meta_ra_of_asc_node": 184.3188,
        "meta_arg_of_pericenter": 243.231,
        "meta_mean_anomaly": 130.503,
        "meta_ephemeris_type": 0,
        "meta_classification_type": "U",
        "meta_norad_cat_id": 34301,
        "meta_element_set_no": 999,
        "meta_rev_at_epoch": 88269,
        "meta_bstar": 0.0053282978,
        "meta_mean_motion_dot": 0.00044515,
        "meta_mean_motion_ddot": 0,
        "tle_line1": "1 34301U 93036MX  25337.87096722  .00044515  00000+0  53283-2 0  9994",
        "tle_line2": "2 34301  74.0058 184.3188 0012333 243.2310 130.5030 14.83843313882690"
      },
      "geometry": {
        "type": "Point",
        "coordinates": [
          54.59942372019795,
          -69.95935179742676
        ]
      }
    },
    {
      "type": "Feature",
      "properties": {
        "norad_id": 34302,
        "name": "COSMOS 2251 DEB",
        "group": "cosmos-2251-debris",
        "lat": -31.164551471792027,
        "lon": -31.756902139824454,
        "alt_km": 811.3180964059829,
        "timestamp": "2025-12-04T15:47:54.493038+00:00",
        "meta_object_name": "COSMOS 2251 DEB",
        "meta_object_id": "1993-036MY",
        "meta_epoch": "2025-12-03T21:01:43.707648",
        "meta_mean_motion": 14.3927538,
        "meta_eccentricity": 0.00782419,
        "meta_inclination": 74.1773,
        "meta_ra_of_asc_node": 139.7983,
        "meta_arg_of_pericenter": 357.6219,
        "meta_mean_anomaly": 124.7901,
        "meta_ephemeris_type": 0,
        "meta_classification_type": "U",
        "meta_norad_cat_id": 34302,
        "meta_element_set_no": 999,
        "meta_rev_at_epoch": 87593,
        "meta_bstar": 0.00096226506,
        "meta_mean_motion_dot": 3.071e-05,
        "meta_mean_motion_ddot": 0,
        "tle_line1": "1 34302U 93036MY  25337.87620032  .00003071  00000+0  96227-3 0  9990",
        "tle_line2": "2 34302  74.1773 139.7983 0078241 357.6219 124.7901 14.39275380875936"
      },
      "geometry": {
        "type": "Point",
        "coordinates": [
          -31.756902139824454,
          -31.164551471792027
        ]
      }
    },
    {
      "type": "Feature",
      "properties": {
        "norad_id": 34303,
        "name": "COSMOS 2251 DEB",
        "group": "cosmos-2251-debris",
        "lat": -42.0018330289962,
        "lon": -71.61039789066756,
        "alt_km": 775.7445071175844,
        "timestamp": "2025-12-04T15:47:54.493049+00:00",
        "meta_object_name": "COSMOS 2251 DEB",
        "meta_object_id": "1993-036MZ",
        "meta_epoch": "2025-12-04T06:36:32.412960",
        "meta_mean_motion": 14.5427994,
        "meta_eccentricity": 0.01348677,
        "meta_inclination": 74.0051,
        "meta_ra_of_asc_node": 304.0833,
        "meta_arg_of_pericenter": 84.6079,
        "meta_mean_anomaly": 28.794,
        "meta_ephemeris_type": 0,
        "meta_classification_type": "U",
        "meta_norad_cat_id": 34303,
        "meta_element_set_no": 999,
        "meta_rev_at_epoch": 87839,
        "meta_bstar": 0.0028413549,
        "meta_mean_motion_dot": 0.00013602,
        "meta_mean_motion_ddot": 0,
        "tle_line1": "1 34303U 93036MZ  25338.27537515  .00013602  00000+0  28414-2 0  9992",
        "tle_line2": "2 34303  74.0051 304.0833 0134867  84.6079  28.7940 14.54279940878396"
      },
      "geometry": {
        "type": "Point",
        "coordinates": [
          -71.61039789066756,
          -42.0018330289962
        ]
      }
    },
    {
      "type": "Feature",
      "properties": {
        "norad_id": 34304,
        "name": "COSMOS 2251 DEB",
        "group": "cosmos-2251-debris",
        "lat": -8.536191696788537,
        "lon": -40.03324801232853,
        "alt_km": 765.4743294069303,
        "timestamp": "2025-12-04T15:47:54.493059+00:00",
        "meta_object_name": "COSMOS 2251 DEB",
        "meta_object_id": "1993-036NA",
        "meta_epoch": "2025-12-04T03:46:45.370848",
        "meta_mean_motion": 14.37735026,
        "meta_eccentricity": 0.01288653,
        "meta_inclination": 74.012,
        "meta_ra_of_asc_node": 138.4236,
        "meta_arg_of_pericenter": 277.9676,
        "meta_mean_anomaly": 201.2454,
        "meta_ephemeris_type": 0,
        "meta_classification_type": "U",
        "meta_norad_cat_id": 34304,
        "meta_element_set_no": 999,
        "meta_rev_at_epoch": 87173,
        "meta_bstar": 0.0026898741,
        "meta_mean_motion_dot": 8.891e-05,
        "meta_mean_motion_ddot": 0,
        "tle_line1": "1 34304U 93036NA  25338.15746957  .00008891  00000+0  26899-2 0  9991",
        "tle_line2": "2 34304  74.0120 138.4236 0128865 277.9676 201.2454 14.37735026871733"
      },
      "geometry": {
        "type": "Point",
        "coordinates": [
          -40.03324801232853,
          -8.536191696788537
        ]
      }
    },
    {
      "type": "Feature",
      "properties": {
        "norad_id": 34307,
        "name": "COSMOS 2251 DEB",
        "group": "cosmos-2251-debris",
        "lat": -52.30712627335044,
        "lon": -55.63274815125577,
        "alt_km": 1300.8656902016328,
        "timestamp": "2025-12-04T15:47:54.493069+00:00",
        "meta_object_name": "COSMOS 2251 DEB",
        "meta_object_id": "1993-036ND",
        "meta_epoch": "2025-12-03T10:42:20.312352",
        "meta_mean_motion": 13.54301619,
        "meta_eccentricity": 0.03923652,
        "meta_inclination": 74.0531,
        "meta_ra_of_asc_node": 328.0288,
        "meta_arg_of_pericenter": 161.0045,
        "meta_mean_anomaly": 353.2249,
        "meta_ephemeris_type": 0,
        "meta_classification_type": "U",
        "meta_norad_cat_id": 34307,
        "meta_element_set_no": 999,
        "meta_rev_at_epoch": 82736,
        "meta_bstar": 0.00078040415,
        "meta_mean_motion_dot": 8.49e-06,
        "meta_mean_motion_ddot": 0,
        "tle_line1": "1 34307U 93036ND  25337.44606843  .00000849  00000+0  78040-3 0  9995",
        "tle_line2": "2 34307  74.0531 328.0288 0392365 161.0045 353.2249 13.54301619827362"
      },
      "geometry": {
        "type": "Point",
        "coordinates": [
          -55.63274815125577,
          -52.30712627335044
        ]
      }
    },
    {
      "type": "Feature",
      "properties": {
        "norad_id": 34313,
        "name": "COSMOS 2251 DEB",
        "group": "cosmos-2251-debris",
        "lat": 8.220907245845527,
        "lon": -35.16900693495317,
        "alt_km": 515.0188422821329,
        "timestamp": "2025-12-04T15:47:54.493092+00:00",
        "meta_object_name": "COSMOS 2251 DEB",
        "meta_object_id": "1993-036NK",
        "meta_epoch": "2025-12-04T01:30:59.445792",
        "meta_mean_motion": 15.16958604,
        "meta_eccentricity": 0.00106356,
        "meta_inclination": 73.9716,
        "meta_ra_of_asc_node": 323.6966,
        "meta_arg_of_pericenter": 91.6501,
        "meta_mean_anomaly": 268.5913,
        "meta_ephemeris_type": 0,
        "meta_classification_type": "U",
        "meta_norad_cat_id": 34313,
        "meta_element_set_no": 999,
        "meta_rev_at_epoch": 88933,
        "meta_bstar": 0.0071432285,
        "meta_mean_motion_dot": 0.00144021,
        "meta_mean_motion_ddot": 0,
        "tle_line1": "1 34313U 93036NK  25338.06318803  .00144021  00000+0  71432-2 0  9995",
        "tle_line2": "2 34313  73.9716 323.6966 0010635  91.6501 268.5913 15.16958604889331"
      },
      "geometry": {
        "type": "Point",
        "coordinates": [
          -35.16900693495317,
          8.220907245845527
        ]
      }
    }
  ]
}